{
  "norad_id": 50484,
  "name": "ONEWEB-0404",
  "history": [
    {
      "epoch": "2026-04-10T08:25:34.117248Z",
      "apogee_km": 1218.8495301883086,
      "perigee_km": 1216.5328025975596,
      "latitude_deg": -1.2334482275640468e-05,
      "longitude_deg": 69.57416419660304,
      "height_km": 1220.3836244195886,
      "semi_major_axis_km": 7595.828166392934,
      "eccentricity": 0.0001525,
      "inclination_deg": 87.8907,
      "raan_deg": 34.5525,
      "arg_perigee_deg": 80.3472,
      "mean_anomaly_deg": 279.7828,
      "mean_motion_rev_day": 13.11414752
    },
    {
      "epoch": "2026-04-11T19:13:03.117792Z",
      "apogee_km": 1218.8511836561102,
      "perigee_km": 1216.5207851644927,
      "latitude_deg": -5.6871958768243086e-05,
      "longitude_deg": -94.01370740604389,
      "height_km": 1220.3944947535335,
      "semi_major_axis_km": 7595.822984410301,
      "eccentricity": 0.0001534,
      "inclination_deg": 87.8909,
      "raan_deg": 34.2643,
      "arg_perigee_deg": 81.2044,
      "mean_anomaly_deg": 278.9257,
      "mean_motion_rev_day": 13.11416094
    },
    {
      "epoch": "2026-04-13T06:00:31.905792Z",
      "apogee_km": 1218.849497453456,
      "perigee_km": 1216.5142389006242,
      "latitude_deg": -2.4559052339205334e-05,
      "longitude_deg": 102.3994139535711,
      "height_km": 1220.4039244777432,
      "semi_major_axis_km": 7595.81886817704,
      "eccentricity": 0.00015372,
      "inclination_deg": 87.8911,
      "raan_deg": 33.9762,
      "arg_perigee_deg": 81.8953,
      "mean_anomaly_deg": 278.2349,
      "mean_motion_rev_day": 13.1141716
    },
    {
      "epoch": "2026-04-14T20:27:44.590752Z",
      "apogee_km": 1218.854044874738,
      "perigee_km": 1216.5038994129582,
      "latitude_deg": 4.3638659418920074e-05,
      "longitude_deg": -116.30106591881427,
      "height_km": 1220.409892633999,
      "semi_major_axis_km": 7595.815972143848,
      "eccentricity": 0.0001547,
      "inclination_deg": 87.8914,
      "raan_deg": 33.6578,
      "arg_perigee_deg": 82.3845,
      "mean_anomaly_deg": 277.7459,
      "mean_motion_rev_day": 13.1141791
    },
    {
      "epoch": "2026-04-15T18:26:08.851200Z",
      "apogee_km": 1218.852658426711,
      "perigee_km": 1216.5025133938307,
      "latitude_deg": -7.395834046000855e-05,
      "longitude_deg": -86.98646937159275,
      "height_km": 1220.4170622378253,
      "semi_major_axis_km": 7595.814585910271,
      "eccentricity": 0.0001547,
      "inclination_deg": 87.8915,
      "raan_deg": 33.4759,
      "arg_perigee_deg": 82.8043,
      "mean_anomaly_deg": 277.326,
      "mean_motion_rev_day": 13.11418269
    },
    {
      "epoch": "2026-04-16T18:14:25.238112Z",
      "apogee_km": 1218.844133597895,
      "perigee_km": 1216.5304455192954,
      "latitude_deg": -3.944752638600392e-05,
      "longitude_deg": -85.22876321622043,
      "height_km": 1220.4001912751507,
      "semi_major_axis_km": 7595.8242895585945,
      "eccentricity": 0.0001523,
      "inclination_deg": 87.8905,
      "raan_deg": 33.2795,
      "arg_perigee_deg": 81.3598,
      "mean_anomaly_deg": 278.7702,
      "mean_motion_rev_day": 13.11415756
    },
    {
      "epoch": "2026-04-17T18:02:41.542080Z",
      "apogee_km": 1218.9268358210084,
      "perigee_km": 1216.4352555856567,
      "latitude_deg": 1.2194350188018593e-05,
      "longitude_deg": -83.47121046214518,
      "height_km": 1220.3903061190865,
      "semi_major_axis_km": 7595.818045703332,
      "eccentricity": 0.00016401,
      "inclination_deg": 87.8879,
      "raan_deg": 33.0826,
      "arg_perigee_deg": 81.8224,
      "mean_anomaly_deg": 278.309,
      "mean_motion_rev_day": 13.11417373
    },
    {
      "epoch": "2026-04-18T12:21:21.703392Z",
      "apogee_km": 1218.9065361556222,
      "perigee_km": 1216.4423030148791,
      "latitude_deg": -1.2083327588393369e-05,
      "longitude_deg": 0.9568376785190309,
      "height_km": 1220.459699885323,
      "semi_major_axis_km": 7595.81141958525,
      "eccentricity": 0.00016221,
      "inclination_deg": 87.8909,
      "raan_deg": 32.93,
      "arg_perigee_deg": 85.2869,
      "mean_anomaly_deg": 274.8444,
      "mean_motion_rev_day": 13.11419089
    },
    {
      "epoch": "2026-04-19T19:29:06.363744Z",
      "apogee_km": 1218.8817126451204,
      "perigee_km": 1216.484471824012,
      "latitude_deg": 6.84066413604933e-06,
      "longitude_deg": -107.51577302649294,
      "height_km": 1220.459882962003,
      "semi_major_axis_km": 7595.820092234566,
      "eccentricity": 0.0001578,
      "inclination_deg": 87.8917,
      "raan_deg": 32.6719,
      "arg_perigee_deg": 84.7438,
      "mean_anomaly_deg": 275.387,
      "mean_motion_rev_day": 13.11416843
    }
  ]
}